[{"OBJECT_NAME":"STARLINK-34269","OBJECT_ID":"2025-127S","EPOCH":"2026-03-09T07:34:03.578016","MEAN_MOTION":15.27595807,"ECCENTRICITY":9.079e-5,"INCLINATION":42.9955,"RA_OF_ASC_NODE":181.5617,"ARG_OF_PERICENTER":307.1563,"MEAN_ANOMALY":52.9205,"EPHEMERIS_TYPE":0,"CLASSIFICATION_TYPE":"U","NORAD_CAT_ID":64386,"ELEMENT_SET_NO":999,"REV_AT_EPOCH":4241,"BSTAR":0.001338187,"MEAN_MOTION_DOT":0.00036763,"MEAN_MOTION_DDOT":0},{"OBJECT_NAME":"SL-3 R\/B","OBJECT_ID":"1982-027B","EPOCH":"2026-03-09T22:44:40.208640","MEAN_MOTION":15.28335844,"ECCENTRICITY":0.00065199,"INCLINATION":81.188,"RA_OF_ASC_NODE":37.4466,"ARG_OF_PERICENTER":276.581,"MEAN_ANOMALY":83.4683,"EPHEMERIS_TYPE":0,"CLASSIFICATION_TYPE":"U","NORAD_CAT_ID":13121,"ELEMENT_SET_NO":999,"REV_AT_EPOCH":39859,"BSTAR":0.00030526741,"MEAN_MOTION_DOT":8.453e-5,"MEAN_MOTION_DDOT":0}]
